COMMENT,ORIGINATOR,NORAD_CAT_ID,OBJECT_NAME,OBJECT_TYPE,CLASSIFICATION_TYPE,INTLDES,EPOCH,EPOCH_MICROSECONDS,MEAN_MOTION,ECCENTRICITY,INCLINATION,RA_OF_ASC_NODE,ARG_OF_PERICENTER,MEAN_ANOMALY,EPHEMERIS_TYPE,ELEMENT_SET_NO,REV_AT_EPOCH,BSTAR,MEAN_MOTION_DOT,MEAN_MOTION_DDOT,FILE,TLE_LINE0,TLE_LINE1,TLE_LINE2,OBJECT_ID,OBJECT_NUMBER,SEMIMAJOR_AXIS,PERIOD,APOGEE,PERIGEE,DECAYED
GENERATED VIA SPACETRACK.ORG API,18 SPCS,33436,ASTRA 1M,PAYLOAD,U,08057A,2024-02-02 04:20:42,768384,1.00277025,0.0000747,0.0152,79.9073,164.2002,332.1396,0,999,5579,0,0.00000139,0,4177107,0 ASTRA 1M,1 33436U 08057A   24033.18105056  .00000139  00000-0  00000+0 0  9999,2 33436   0.0152  79.9073 0000747 164.2002 332.1396  1.00277025 55794,2008-057A,33436,42163.263,1436.022,35788.278,35781.978,0
GENERATED VIA SPACETRACK.ORG API,18 SPCS,44307,YAMAL 601,PAYLOAD,U,19031A,2024-02-02 04:04:42,739104,1.00273163,0.0002363,0.0147,158.5423,150.1052,293.3722,0,999,1722,0,0.00000139,0,4177275,0 YAMAL 601,1 44307U 19031A   24033.16993911  .00000139  00000-0  00000+0 0  9995,2 44307   0.0147 158.5423 0002363 150.1052 293.3722  1.00273163 17221,2019-031A,44307,42164.346,1436.077,35796.174,35776.247,0
GENERATED VIA SPACETRACK.ORG API,18 SPCS,38704,TITAN 3C TRANSTAGE DEB,DEBRIS,U,68081AE,2024-02-02 03:34:00,467328,1.02199348,0.0212722,2.1174,61.5817,213.3087,145.5395,0,999,6717,0,-0.00000148,0,4177339,0 TITAN 3C TRANSTAGE DEB,1 38704U 68081AE  24033.14861652 -.00000148  00000-0  00000+0 0  9993,2 38704   2.1174  61.5817 0212722 213.3087 145.5395  1.02199348 67177,1968-081AE,38704,41632.877,1409.011,36140.365,34369.119,0
GENERATED VIA SPACETRACK.ORG API,18 SPCS,38704,TITAN 3C TRANSTAGE DEB,DEBRIS,U,68081AE,2024-02-02 03:34:00,467328,1.02199348,0.0212722,2.1174,61.5817,213.3087,145.5395,0,999,6715,0,-0.00000148,0,4177630,0 TITAN 3C TRANSTAGE DEB,1 38704U 68081AE  24033.14861652 -.00000148  00000-0  00000-0 0  9994,2 38704   2.1174  61.5817 0212722 213.3087 145.5395  1.02199348 67155,1968-081AE,38704,41632.877,1409.011,36140.365,34369.119,0
GENERATED VIA SPACETRACK.ORG API,18 SPCS,25001,TITAN 3C TRANSTAGE DEB,DEBRIS,U,68081H,2024-02-02 02:56:11,370048,1.01695287,0.0065127,1.0555,343.1917,40.2006,79.4267,0,999,10950,0,-0.00000197,0,4177195,0 TITAN 3C TRANSTAGE DEB,1 25001U 68081H   24033.12235382 -.00000197  00000-0  00000+0 0  9996,2 25001   1.0555 343.1917 0065127  40.2006  79.4267  1.01695287109506,1968-081H,25001,41770.335,1415.995,35664.238,35120.162,0
GENERATED VIA SPACETRACK.ORG API,18 SPCS,41937,SBIRS GEO 4 (USA 273),PAYLOAD,U,17004A,2024-02-02 02:49:10,320384,1.00271734,0.0002389,1.4742,347.2636,325.547,124.4735,0,999,2591,0,-0.00000124,0,4177152,0 SBIRS GEO 4 (USA 273),1 41937U 17004A   24033.11748056 -.00000124  00000-0  00000+0 0  9997,2 41937   1.4742 347.2636 0002389 325.5470 124.4735  1.00271734 25911,2017-004A,41937,42164.746,1436.098,35796.684,35776.538,0
GENERATED VIA SPACETRACK.ORG API,18 SPCS,29162,EUTE 113 WEST A(SATMEX 6,PAYLOAD,U,06020A,2024-02-02 02:15:34,536672,1.00271482,0.0003035,0.1277,104.2141,212.6005,95.828,0,999,6478,0,-0.00000018,0,4177212,0 EUTE 113 WEST A(SATMEX 6,1 29162U 06020A   24033.09414973 -.00000018  00000-0  00000+0 0  9996,2 29162   0.1277 104.2141 0003035 212.6005  95.8280  1.00271482 64781,2006-020A,29162,42164.817,1436.101,35799.479,35773.885,0
GENERATED VIA SPACETRACK.ORG API,18 SPCS,22787,UFO 2 (USA 95),PAYLOAD,U,93056A,2024-02-02 01:48:42,596928,1.00269888,0.0003175,11.6178,8.0639,302.5594,237.0276,0,999,10997,0,0.0000014,0,4177382,0 UFO 2 (USA 95),1 22787U 93056A   24033.07549302  .00000140  00000-0  00000+0 0  9995,2 22787  11.6178   8.0639 0003175 302.5594 237.0276  1.00269888109977,1993-056A,22787,42165.264,1436.124,35800.516,35773.741,0
GENERATED VIA SPACETRACK.ORG API,18 SPCS,22787,UFO 2 (USA 95),PAYLOAD,U,93056A,2024-02-02 01:48:42,596928,1.00269888,0.0003175,11.6178,8.0639,302.5594,237.0276,0,999,10986,0,0.0000014,0,4177630,0 UFO 2 (USA 95),1 22787U 93056A   24033.07549302  .00000140  00000-0  00000-0 0  9996,2 22787  11.6178   8.0639 0003175 302.5594 237.0276  1.00269888109865,1993-056A,22787,42165.264,1436.124,35800.516,35773.741,0
GENERATED VIA SPACETRACK.ORG API,18 SPCS,38699,TITAN 3C TRANSTAGE DEB,DEBRIS,U,68081Z,2024-02-02 00:04:42,576384,1.00862437,0.0100405,1.3945,336.3806,344.0098,260.083,0,999,4313,0,-0.00000295,0,4177630,0 TITAN 3C TRANSTAGE DEB,1 38699U 68081Z   24033.00327056 -.00000295  00000-0  00000-0 0  9990,2 38699   1.3945 336.3806 0100405 344.0098 260.0830  1.00862437 43137,1968-081Z,38699,41999.959,1427.687,36043.525,35200.124,0
GENERATED VIA SPACETRACK.ORG API,18 SPCS,22988,USA 99,PAYLOAD,U,94009A,2024-02-01 23:24:54,736992,1.00274118,0.0003276,16.2946,36.8748,278.9287,77.1099,0,999,2296,0,-0.00000187,0,4177085,0 USA 99,1 22988U 94009A   24032.97563353 -.00000187  00000-0  00000+0 0  9999,2 22988  16.2946  36.8748 0003276 278.9287  77.1099  1.00274118 22962,1994-009A,22988,42164.078,1436.063,35799.756,35772.130,0
GENERATED VIA SPACETRACK.ORG API,18 SPCS,22988,USA 99,PAYLOAD,U,94009A,2024-02-01 23:24:54,736992,1.00274118,0.0003276,16.2946,36.8748,278.9287,77.1099,0,999,2427,0,-0.00000187,0,4177630,0 USA 99,1 22988U 94009A   24032.97563353 -.00000187  00000-0  00000-0 0  9990,2 22988  16.2946  36.8748 0003276 278.9287  77.1099  1.00274118 24278,1994-009A,22988,42164.078,1436.063,35799.756,35772.130,0
GENERATED VIA SPACETRACK.ORG API,18 SPCS,43453,TITAN 3C TRANSTAGE DEB,DEBRIS,U,69013L,2024-02-01 22:54:46,183680,1.0739917,0.0566188,1.7891,234.8132,218.6176,136.8882,0,999,2273,0,-0.00000103,0,4177630,0 TITAN 3C TRANSTAGE DEB,1 43453U 69013L   24032.95470120 -.00000103  00000-0  00000-0 0  9992,2 43453   1.7891 234.8132 0566188 218.6176 136.8882  1.07399170 22732,1969-013L,43453,40277.999,1340.792,36180.356,31619.372,0
GENERATED VIA SPACETRACK.ORG API,18 SPCS,43453,TITAN 3C TRANSTAGE DEB,DEBRIS,U,69013L,2024-02-01 22:54:45,173664,1.07399179,0.0566671,1.7897,234.8,218.4877,137.0262,0,999,2273,0,-0.00000103,0,4177764,0 TITAN 3C TRANSTAGE DEB,1 43453U 69013L   24032.95468951 -.00000103  00000-0  00000+0 0  9990,2 43453   1.7897 234.8000 0566671 218.4877 137.0262  1.07399179 22739,1969-013L,43453,40277.997,1340.792,36182.299,31617.425,0
GENERATED VIA SPACETRACK.ORG API,18 SPCS,43453,TITAN 3C TRANSTAGE DEB,DEBRIS,U,69013L,2024-02-01 22:54:45,173664,1.07399179,0.0566671,1.7897,234.8,218.4877,137.0262,0,999,2273,0,-0.00000103,0,4177944,0 TITAN 3C TRANSTAGE DEB,1 43453U 69013L   24032.95468951 -.00000103  00000-0  00000-0 0  9991,2 43453   1.7897 234.8000 0566671 218.4877 137.0262  1.07399179 22739,1969-013L,43453,40277.997,1340.792,36182.299,31617.425,0
GENERATED VIA SPACETRACK.ORG API,18 SPCS,41469,IRNSS 1G,PAYLOAD,U,16027A,2024-02-01 22:44:41,215200,1.00270131,0.0004218,3.1407,124.5046,273.2053,204.6517,0,999,2848,0,-0.00000318,0,4177204,0 IRNSS 1G,1 41469U 16027A   24032.94769925 -.00000318  00000-0  00000+0 0  9994,2 41469   3.1407 124.5046 0004218 273.2053 204.6517  1.00270131 28482,2016-027A,41469,42165.196,1436.121,35804.846,35769.275,0
GENERATED VIA SPACETRACK.ORG API,18 SPCS,38697,TITAN 3C TRANSTAGE DEB *,DEBRIS,U,68081X,2024-02-01 21:45:38,284704,1.01473506,0.0175805,3.7221,33.8818,335.2743,24.0762,0,999,6606,0,-0.00000287,0,4177599,0 TITAN 3C TRANSTAGE DEB *,1 38697U 68081X   24032.90669311 -.00000287  00000-0  00000+0 0  9999,2 38697   3.7221  33.8818 0175805 335.2743  24.0762  1.01473506 66060,1968-081X,38697,41831.175,1419.090,36188.453,34717.627,0
GENERATED VIA SPACETRACK.ORG API,18 SPCS,38697,TITAN 3C TRANSTAGE DEB *,DEBRIS,U,68081X,2024-02-01 21:45:38,284704,1.01473506,0.0175805,3.7221,33.8818,335.2743,24.0762,0,999,6607,0,-0.00000287,0,4177630,0 TITAN 3C TRANSTAGE DEB *,1 38697U 68081X   24032.90669311 -.00000287  00000-0  00000-0 0  9990,2 38697   3.7221  33.8818 0175805 335.2743  24.0762  1.01473506 66071,1968-081X,38697,41831.175,1419.090,36188.453,34717.627,0
GENERATED VIA SPACETRACK.ORG API,18 SPCS,41469,IRNSS 1G,PAYLOAD,U,16027A,2024-02-01 21:01:33,273120,1.00270169,0.0004215,3.1406,124.5077,273.2415,178.7591,0,999,2849,0,-0.00000318,0,4177080,0 IRNSS 1G,1 41469U 16027A   24032.87607955 -.00000318  00000-0  00000-0 0  9991,2 41469   3.1406 124.5077 0004215 273.2415 178.7591  1.00270169 28499,2016-027A,41469,42165.185,1436.120,35804.823,35769.277,0
GENERATED VIA SPACETRACK.ORG API,18 SPCS,41384,IRNSS 1F,PAYLOAD,U,16015A,2024-02-01 19:55:42,582144,1.0027391,0.0021544,3.2572,123.139,186.7391,152.9435,0,999,2897,0,0.00000175,0,4177080,0 IRNSS 1F,1 41384U 16015A   24032.83035396  .00000175  00000-0  00000-0 0  9994,2 41384   3.2572 123.1390 0021544 186.7391 152.9435  1.00273910 28979,2016-015A,41384,42164.136,1436.066,35876.840,35695.163,0
GENERATED VIA SPACETRACK.ORG API,18 SPCS,44307,YAMAL 601,PAYLOAD,U,19031A,2024-02-01 19:21:42,696288,1.00272939,0.0002364,0.0154,163.2337,145.4915,162.1842,0,999,1723,0,0.00000138,0,4177080,0 YAMAL 601,1 44307U 19031A   24032.80674417  .00000138  00000-0  00000-0 0  9992,2 44307   0.0154 163.2337 0002364 145.4915 162.1842  1.00272939 17239,2019-031A,44307,42164.408,1436.080,35796.241,35776.306,0
GENERATED VIA SPACETRACK.ORG API,18 SPCS,42915,TDRS 13,PAYLOAD,U,17047A,2024-02-01 18:37:56,769600,1.0027249,0.0012554,3.7572,341.8546,109.8289,307.7385,0,999,2366,0,-0.00000079,0,4177080,0 TDRS 13,1 42915U 17047A   24032.77635150 -.00000079  00000-0  00000-0 0  9992,2 42915   3.7572 341.8546 0012554 109.8289 307.7385  1.00272490 23667,2017-047A,42915,42164.534,1436.087,35839.333,35733.466,0
GENERATED VIA SPACETRACK.ORG API,18 SPCS,25967,UFO 10 (USA 146),PAYLOAD,U,99063A,2024-02-01 18:34:48,801216,1.00273785,0.0004931,9.3666,31.2213,252.8515,103.2938,0,999,8865,0,-0.00000172,0,4177080,0 UFO 10 (USA 146),1 25967U 99063A   24032.77417594 -.00000172  00000-0  00000-0 0  9992,2 25967   9.3666  31.2213 0004931 252.8515 103.2938  1.00273785 88654,1999-063A,25967,42164.171,1436.068,35806.827,35765.245,0
